STARLINK-31398          
1 59415U 24064T   26026.75653836 -.00003534  00000+0 -11895-3 0  9992
2 59415  43.0021 292.9001 0001909 276.5533  83.5101 15.27577226102813
STARLINK-31399          
1 59416U 24064U   26026.75011534 -.00000542  00000+0 -10184-4 0  9993
2 59416  42.9983 292.8508 0001436 283.1865  76.8826 15.27568220102810
STARLINK-31401          
1 59417U 24064V   26026.96008789  .00001668  00000+0  70120-4 0  9999
2 59417  43.0023 284.9240 0001233 278.5442  81.5270 15.27581529102674
STARLINK-31414          
1 59418U 24064W   26025.06806565 -.00004465  00000+0 -15283-3 0  9996
2 59418  42.9996 302.5883 0001460 277.0852  82.9834 15.27578436102554
STARLINK-31415          
1 59419U 24064X   26026.79380978 -.00001074  00000+0 -29522-4 0  9998
2 59419  43.0017 293.1825 0001155 257.8108 102.2615 15.27566577102818
STARLINK-31466          
1 59420U 24064Y   26026.92072304  .00000893  00000+0  41994-4 0  9999
2 59420  43.0008 292.4146 0001180 250.4678 109.6046 15.27561553102837
STARLINK-11087 [DTC]    
1 59421U 24065A   26026.49219413  .00002830  00000+0  28198-4 0  9991
2 59421  53.1587 302.0393 0000634 110.8370 249.2716 15.69718047104885
STARLINK-11090 [DTC]    
1 59422U 24065B   26027.05052299  .00005467  00000+0  50015-4 0  9994
2 59422  53.1600 299.1161 0001376  67.7958 292.3206 15.69680135104998
STARLINK-11093 [DTC]    
1 59423U 24065C   26027.05542568  .00000206  00000+0  65659-5 0  9995
2 59423  53.1588 299.1502 0001251  82.8406 277.2754 15.69704350104986
STARLINK-11083 [DTC]    
1 59424U 24065D   26026.48729942  .00004672  00000+0  43402-4 0  9997
2 59424  53.1582 302.0058 0000682 142.5312 217.5754 15.69703959104844
STARLINK-11085 [DTC]    
1 59425U 24065E   26027.04561044 -.00000053  00000+0  44213-5 0  9990
2 59425  53.1595 299.0815 0001164  76.0741 284.0406 15.69706381104933
STARLINK-11089 [DTC]    
1 59426U 24065F   26026.05142646  .00001247  00000+0  15155-4 0  9991
2 59426  53.1564 304.2841 0001152  86.5381 273.5769 15.69706260104820
STARLINK-31757          
1 59427U 24065G   26026.65077282 -.00000205  00000+0  52180-5 0  9995
2 59427  53.1574 116.9095 0001256 101.9582 258.1560 15.30189494102492
STARLINK-31773          
1 59429U 24065J   26026.63231325 -.00002566  00000+0 -74569-4 0  9992
2 59429  53.1613 118.9168 0001630  78.4549 281.6635 15.30180019102463
STARLINK-31772          
1 59430U 24065K   26026.63494559  .00000277  00000+0  21464-4 0  9995
2 59430  53.1614 116.8011 0000995  82.9082 277.2031 15.30186428102499
STARLINK-31613          
1 59431U 24065L   26026.51698003  .00002416  00000+0  93737-4 0  9992
2 59431  53.1603 117.4843 0001203 100.1661 259.9476 15.30180312102471
