[{"OBJECT_NAME":"STARLINK-31398","OBJECT_ID":"2024-064T","EPOCH":"2026-01-26T18:09:24.914304","MEAN_MOTION":15.27577226,"ECCENTRICITY":0.00019094,"INCLINATION":43.0021,"RA_OF_ASC_NODE":292.9001,"ARG_OF_PERICENTER":276.5533,"MEAN_ANOMALY":83.5101,"EPHEMERIS_TYPE":0,"CLASSIFICATION_TYPE":"U","NORAD_CAT_ID":59415,"ELEMENT_SET_NO":999,"REV_AT_EPOCH":10281,"BSTAR":-0.00011895009,"MEAN_MOTION_DOT":-3.534e-5,"MEAN_MOTION_DDOT":0},{"OBJECT_NAME":"STARLINK-31399","OBJECT_ID":"2024-064U","EPOCH":"2026-01-26T18:00:09.965376","MEAN_MOTION":15.2756822,"ECCENTRICITY":0.00014369,"INCLINATION":42.9983,"RA_OF_ASC_NODE":292.8508,"ARG_OF_PERICENTER":283.1865,"MEAN_ANOMALY":76.8826,"EPHEMERIS_TYPE":0,"CLASSIFICATION_TYPE":"U","NORAD_CAT_ID":59416,"ELEMENT_SET_NO":999,"REV_AT_EPOCH":10281,"BSTAR":-1.0184295e-5,"MEAN_MOTION_DOT":-5.42e-6,"MEAN_MOTION_DDOT":0},{"OBJECT_NAME":"STARLINK-31401","OBJECT_ID":"2024-064V","EPOCH":"2026-01-26T23:02:31.593696","MEAN_MOTION":15.27581529,"ECCENTRICITY":0.00012337,"INCLINATION":43.0023,"RA_OF_ASC_NODE":284.924,"ARG_OF_PERICENTER":278.5442,"MEAN_ANOMALY":81.527,"EPHEMERIS_TYPE":0,"CLASSIFICATION_TYPE":"U","NORAD_CAT_ID":59417,"ELEMENT_SET_NO":999,"REV_AT_EPOCH":10267,"BSTAR":7.0119871e-5,"MEAN_MOTION_DOT":1.668e-5,"MEAN_MOTION_DDOT":0},{"OBJECT_NAME":"STARLINK-31414","OBJECT_ID":"2024-064W","EPOCH":"2026-01-25T01:38:00.872160","MEAN_MOTION":15.27578436,"ECCENTRICITY":0.00014603,"INCLINATION":42.9996,"RA_OF_ASC_NODE":302.5883,"ARG_OF_PERICENTER":277.0852,"MEAN_ANOMALY":82.9834,"EPHEMERIS_TYPE":0,"CLASSIFICATION_TYPE":"U","NORAD_CAT_ID":59418,"ELEMENT_SET_NO":999,"REV_AT_EPOCH":10255,"BSTAR":-0.00015283077,"MEAN_MOTION_DOT":-4.465e-5,"MEAN_MOTION_DDOT":0},{"OBJECT_NAME":"STARLINK-31415","OBJECT_ID":"2024-064X","EPOCH":"2026-01-26T19:03:05.164992","MEAN_MOTION":15.27566577,"ECCENTRICITY":0.00011554,"INCLINATION":43.0017,"RA_OF_ASC_NODE":293.1825,"ARG_OF_PERICENTER":257.8108,"MEAN_ANOMALY":102.2615,"EPHEMERIS_TYPE":0,"CLASSIFICATION_TYPE":"U","NORAD_CAT_ID":59419,"ELEMENT_SET_NO":999,"REV_AT_EPOCH":10281,"BSTAR":-2.9522393e-5,"MEAN_MOTION_DOT":-1.074e-5,"MEAN_MOTION_DDOT":0},{"OBJECT_NAME":"STARLINK-31466","OBJECT_ID":"2024-064Y","EPOCH":"2026-01-26T22:05:50.470656","MEAN_MOTION":15.27561553,"ECCENTRICITY":0.00011809,"INCLINATION":43.0008,"RA_OF_ASC_NODE":292.4146,"ARG_OF_PERICENTER":250.4678,"MEAN_ANOMALY":109.6046,"EPHEMERIS_TYPE":0,"CLASSIFICATION_TYPE":"U","NORAD_CAT_ID":59420,"ELEMENT_SET_NO":999,"REV_AT_EPOCH":10283,"BSTAR":4.1993981e-5,"MEAN_MOTION_DOT":8.93e-6,"MEAN_MOTION_DDOT":0},{"OBJECT_NAME":"STARLINK-11087 [DTC]","OBJECT_ID":"2024-065A","EPOCH":"2026-01-26T11:48:45.572832","MEAN_MOTION":15.69718047,"ECCENTRICITY":6.34e-5,"INCLINATION":53.1587,"RA_OF_ASC_NODE":302.0393,"ARG_OF_PERICENTER":110.837,"MEAN_ANOMALY":249.2716,"EPHEMERIS_TYPE":0,"CLASSIFICATION_TYPE":"U","NORAD_CAT_ID":59421,"ELEMENT_SET_NO":999,"REV_AT_EPOCH":10488,"BSTAR":2.8198242e-5,"MEAN_MOTION_DOT":2.83e-5,"MEAN_MOTION_DDOT":0},{"OBJECT_NAME":"STARLINK-11090 [DTC]","OBJECT_ID":"2024-065B","EPOCH":"2026-01-27T01:12:45.186336","MEAN_MOTION":15.69680135,"ECCENTRICITY":0.0001376,"INCLINATION":53.16,"RA_OF_ASC_NODE":299.1161,"ARG_OF_PERICENTER":67.7958,"MEAN_ANOMALY":292.3206,"EPHEMERIS_TYPE":0,"CLASSIFICATION_TYPE":"U","NORAD_CAT_ID":59422,"ELEMENT_SET_NO":999,"REV_AT_EPOCH":10499,"BSTAR":5.0014751e-5,"MEAN_MOTION_DOT":5.467e-5,"MEAN_MOTION_DDOT":0},{"OBJECT_NAME":"STARLINK-11093 [DTC]","OBJECT_ID":"2024-065C","EPOCH":"2026-01-27T01:19:48.778752","MEAN_MOTION":15.6970435,"ECCENTRICITY":0.0001251,"INCLINATION":53.1588,"RA_OF_ASC_NODE":299.1502,"ARG_OF_PERICENTER":82.8406,"MEAN_ANOMALY":277.2754,"EPHEMERIS_TYPE":0,"CLASSIFICATION_TYPE":"U","NORAD_CAT_ID":59423,"ELEMENT_SET_NO":999,"REV_AT_EPOCH":10498,"BSTAR":6.565852e-6,"MEAN_MOTION_DOT":2.06e-6,"MEAN_MOTION_DDOT":0},{"OBJECT_NAME":"STARLINK-11083 [DTC]","OBJECT_ID":"2024-065D","EPOCH":"2026-01-26T11:41:42.669888","MEAN_MOTION":15.69703959,"ECCENTRICITY":6.827e-5,"INCLINATION":53.1582,"RA_OF_ASC_NODE":302.0058,"ARG_OF_PERICENTER":142.5312,"MEAN_ANOMALY":217.5754,"EPHEMERIS_TYPE":0,"CLASSIFICATION_TYPE":"U","NORAD_CAT_ID":59424,"ELEMENT_SET_NO":999,"REV_AT_EPOCH":10484,"BSTAR":4.340154e-5,"MEAN_MOTION_DOT":4.672e-5,"MEAN_MOTION_DDOT":0},{"OBJECT_NAME":"STARLINK-11085 [DTC]","OBJECT_ID":"2024-065E","EPOCH":"2026-01-27T01:05:40.742016","MEAN_MOTION":15.69706381,"ECCENTRICITY":0.00011646,"INCLINATION":53.1595,"RA_OF_ASC_NODE":299.0815,"ARG_OF_PERICENTER":76.0741,"MEAN_ANOMALY":284.0406,"EPHEMERIS_TYPE":0,"CLASSIFICATION_TYPE":"U","NORAD_CAT_ID":59425,"ELEMENT_SET_NO":999,"REV_AT_EPOCH":10493,"BSTAR":4.421338e-6,"MEAN_MOTION_DOT":-5.3e-7,"MEAN_MOTION_DDOT":0},{"OBJECT_NAME":"STARLINK-11089 [DTC]","OBJECT_ID":"2024-065F","EPOCH":"2026-01-26T01:14:03.246144","MEAN_MOTION":15.6970626,"ECCENTRICITY":0.0001152,"INCLINATION":53.1564,"RA_OF_ASC_NODE":304.2841,"ARG_OF_PERICENTER":86.5381,"MEAN_ANOMALY":273.5769,"EPHEMERIS_TYPE":0,"CLASSIFICATION_TYPE":"U","NORAD_CAT_ID":59426,"ELEMENT_SET_NO":999,"REV_AT_EPOCH":10482,"BSTAR":1.5154838e-5,"MEAN_MOTION_DOT":1.247e-5,"MEAN_MOTION_DDOT":0},{"OBJECT_NAME":"STARLINK-31757","OBJECT_ID":"2024-065G","EPOCH":"2026-01-26T15:37:06.771648","MEAN_MOTION":15.30189494,"ECCENTRICITY":0.00012562,"INCLINATION":53.1574,"RA_OF_ASC_NODE":116.9095,"ARG_OF_PERICENTER":101.9582,"MEAN_ANOMALY":258.156,"EPHEMERIS_TYPE":0,"CLASSIFICATION_TYPE":"U","NORAD_CAT_ID":59427,"ELEMENT_SET_NO":999,"REV_AT_EPOCH":10249,"BSTAR":5.218035e-6,"MEAN_MOTION_DOT":-2.05e-6,"MEAN_MOTION_DDOT":0},{"OBJECT_NAME":"STARLINK-31773","OBJECT_ID":"2024-065J","EPOCH":"2026-01-26T15:10:31.864800","MEAN_MOTION":15.30180019,"ECCENTRICITY":0.000163,"INCLINATION":53.1613,"RA_OF_ASC_NODE":118.9168,"ARG_OF_PERICENTER":78.4549,"MEAN_ANOMALY":281.6635,"EPHEMERIS_TYPE":0,"CLASSIFICATION_TYPE":"U","NORAD_CAT_ID":59429,"ELEMENT_SET_NO":999,"REV_AT_EPOCH":10246,"BSTAR":-7.4569e-5,"MEAN_MOTION_DOT":-2.566e-5,"MEAN_MOTION_DDOT":0},{"OBJECT_NAME":"STARLINK-31772","OBJECT_ID":"2024-065K","EPOCH":"2026-01-26T15:14:19.298976","MEAN_MOTION":15.30186428,"ECCENTRICITY":9.95e-5,"INCLINATION":53.1614,"RA_OF_ASC_NODE":116.8011,"ARG_OF_PERICENTER":82.9082,"MEAN_ANOMALY":277.2031,"EPHEMERIS_TYPE":0,"CLASSIFICATION_TYPE":"U","NORAD_CAT_ID":59430,"ELEMENT_SET_NO":999,"REV_AT_EPOCH":10249,"BSTAR":2.1464e-5,"MEAN_MOTION_DOT":2.77e-6,"MEAN_MOTION_DDOT":0},{"OBJECT_NAME":"STARLINK-31613","OBJECT_ID":"2024-065L","EPOCH":"2026-01-26T12:24:27.074592","MEAN_MOTION":15.30180312,"ECCENTRICITY":0.0001203,"INCLINATION":53.1603,"RA_OF_ASC_NODE":117.4843,"ARG_OF_PERICENTER":100.1661,"MEAN_ANOMALY":259.9476,"EPHEMERIS_TYPE":0,"CLASSIFICATION_TYPE":"U","NORAD_CAT_ID":59431,"ELEMENT_SET_NO":999,"REV_AT_EPOCH":10247,"BSTAR":9.3737368e-5,"MEAN_MOTION_DOT":2.416e-5,"MEAN_MOTION_DDOT":0}]
